[{"OBJECT_NAME":"ONEWEB-0638","OBJECT_ID":"2023-029G","EPOCH":"2026-03-09T16:17:25.868832","MEAN_MOTION":13.14503651,"ECCENTRICITY":0.00010177,"INCLINATION":87.8977,"RA_OF_ASC_NODE":309.6166,"ARG_OF_PERICENTER":83.261,"MEAN_ANOMALY":276.8635,"EPHEMERIS_TYPE":0,"CLASSIFICATION_TYPE":"U","NORAD_CAT_ID":55802,"ELEMENT_SET_NO":999,"REV_AT_EPOCH":14632,"BSTAR":-0.00026598625,"MEAN_MOTION_DOT":-8.6e-7,"MEAN_MOTION_DDOT":0},{"OBJECT_NAME":"DELTA 1 DEB","OBJECT_ID":"1977-065DL","EPOCH":"2026-03-09T05:03:29.284704","MEAN_MOTION":13.58952222,"ECCENTRICITY":0.06330817,"INCLINATION":28.7836,"RA_OF_ASC_NODE":97.9522,"ARG_OF_PERICENTER":253.7759,"MEAN_ANOMALY":169.3549,"EPHEMERIS_TYPE":0,"CLASSIFICATION_TYPE":"U","NORAD_CAT_ID":10314,"ELEMENT_SET_NO":999,"REV_AT_EPOCH":34572,"BSTAR":0.0019577614,"MEAN_MOTION_DOT":5.734e-5,"MEAN_MOTION_DDOT":0}]
